ONEWEB-0196             
1 48218U 21031J   26008.59803499 -.00000196  00000+0 -56336-3 0  9996
2 48218  87.9015 321.5087 0001602  82.8352 277.2959 13.14502727227260
ONEWEB-0183             
1 48219U 21031K   26008.57268490 -.00000012  00000+0 -66332-4 0  9996
2 48219  87.9011 321.5160 0001864  83.9061 276.2281 13.14502970227355
ONEWEB-0185             
1 48220U 21031L   26008.59882999 -.00000308  00000+0 -86499-3 0  9999
2 48220  87.9022 321.4916 0001821  93.6906 266.4432 13.14501016227287
ONEWEB-0187             
1 48221U 21031M   26008.42665818 -.00000201  00000+0 -57669-3 0  9990
2 48221  87.9011 321.5638 0001615  87.5933 272.5381 13.14502401227270
ONEWEB-0192             
1 48222U 21031N   26008.39666658  .00000230  00000+0  58583-3 0  9996
2 48222  87.9010 321.5592 0001648  78.2367 281.8948 13.14503066227183
ONEWEB-0219             
1 48223U 21031P   26008.60440076  .00000122  00000+0  29546-3 0  9992
2 48223  87.9019 321.4980 0001688  88.3517 271.7806 13.14502851227414
ONEWEB-0202             
1 48224U 21031Q   26008.58536504 -.00000117  00000+0 -34953-3 0  9996
2 48224  87.9015 321.5126 0001017  74.5174 285.6068 13.14503118227394
ONEWEB-0204             
1 48225U 21031R   26008.61945914  .00000288  00000+0  74129-3 0  9996
2 48225  87.9021 321.4972 0001940  86.0872 274.0480 13.14505378227297
